ONEWEB-0012             
1 44057U 19010A   25075.75147014  .00000131  00000+0  30830-3 0  9990
2 44057  87.9092 319.9889 0002226  91.8468 268.2918 13.16598259291403
ONEWEB-0010             
1 44058U 19010B   25075.62481850 -.00000031  00000+0 -11349-3 0  9991
2 44058  87.9091 319.9962 0001990  68.0189 292.1153 13.16592690291408
ONEWEB-0008             
1 44059U 19010C   25075.19415813  .00000070  00000+0  14977-3 0  9991
2 44059  87.9091 320.0825 0001495  83.3236 276.8065 13.16596868291461
ONEWEB-0007             
1 44060U 19010D   25075.47392576 -.00000018  00000+0 -80871-4 0  9995
2 44060  87.9146 350.4018 0002195  78.0925 282.0451 13.15550087291199
ONEWEB-0006             
1 44061U 19010E   25075.47787725 -.00000062  00000+0 -19737-3 0  9991
2 44061  87.9135 350.3590 0002077  74.0199 286.1160 13.15550980291240
ONEWEB-0011             
1 44062U 19010F   25075.52384186  .00000132  00000+0  31611-3 0  9993
2 44062  87.9138 350.3560 0001721  72.8277 287.3042 13.15547991291249
ONEWEB-0013             
1 45131U 20008A   25075.69131567 -.00000362  00000+0 -10871-2 0  9992
2 45131  87.8629 145.0849 0002772 116.6210 243.5201 13.09421192246957
ONEWEB-0017             
1 45132U 20008B   25075.84736965 -.00000314  00000+0 -93681-3 0  9991
2 45132  87.8840 127.4461 0001893  91.4236 268.7108 13.10370450248823
